full_name,a,e,i,om,w,q,per_y,H
"       (2016 NT22)",1.245473623918673,.8704506790523304,17.76622307842122,315.8355052507848,146.1740673059844,.1613502622368972,1.38998465011607,19.5
"       (2016 XK24)",.5798496703025886,.7352195073226615,8.415126081676064,12.65106221934268,257.7966810608186,.1535328813815117,0.441551458981401,20.4
"       (2017 AF5)",2.479437839269105,.9496964793140819,20.89708539791528,323.3000215245857,11.18041306515513,.1247244526371216,3.90425378000031,17.8
"       (2017 EP22)",1.971560833049808,.9070280008516637,14.74733653117217,10.42355827655019,19.76051579044874,.1832999520912,2.76836579815933,22.4
"       (2017 HE4)",2.892573387578344,.9427853434261895,41.0700806879245,208.6401454711271,158.9393343386763,.1654975929848387,4.91965651268639,21.2
"       (2017 MM7)",2.06221358870107,.9614466095919817,23.46631495580896,250.8158232707896,230.5042632352036,.07950532558991283,2.96147907685225,21.1
"       (2017 SK10)",2.055603377217921,.9319420892950468,24.51573391027844,3.32893545773006,202.4345497583062,.1399000710914974,2.94725142300525,21.4
"       (2017 TC1)",2.489970639167797,.9695289870703989,9.288061353112155,274.3660039745766,253.0705217336933,.07587192754040901,3.92915843695979,20.9
"       (2018 GG5)",1.98690399642183,.9446101091477961,16.73880494960125,3.693092657225636,347.7197518342366,.1100543954956129,2.80074472841562,19.8
"  321P/SOHO",2.426630318554877,.9806622092195985,19.7363116677891,165.2691489466613,172.4062039751661,.04692566940159335,3.7801900215754,
"  322P/SOHO",2.51626146560583,.9786764762641811,12.58923564712983,359.5244877541514,49.04947677107452,.0536555610873724,3.99155256115544,
"  323P/SOHO",2.610536708377317,.9817284048892367,6.485264440642934,322.1822742254121,355.0741626256408,.047698669757255,4.21796439067849,
"  342P/SOHO",3.043003759113562,.9826020621617956,13.2747864590719,43.40094149131597,58.70418485035059,.05294199024248015,5.30837916030891,
"     P/2008 Y12 (SOHO)",3.078224129104039,.9787495374822994,23.34562318136519,312.5525907382889,146.614161143522,.06541368647660686,5.40080577627972,
